#dP2024  8 20  0  0  0.00000000      96 __u+U IGS20 FIT  IAC
## 2328 172800.00000000   900.00000000 60542 0.0000000000000
+   53   G02G03G04G05G06G07G08G09G10G11G12G13G14G15G16G17G18
+        G19G20G21G22G23G24G25G26G27G28G29G30G31G32R01R02R03
+        R04R05R07R08R09R11R12R14R15R16R17R18R19R20R21R22R24
+        R25R26  0  0  0  0  0  0  0  0  0  0  0  0  0  0  0
+          0  0  0  0  0  0  0  0  0  0  0  0  0  0  0  0  0
++         7  6  5  6  6  7  5  5  8  6  7  5  7  6  6  5  6
++         5  7  6  6  7  7  6  7  6  7  7  7  7  5  3  7  5
++         7  7  7  5  8  6  7  7  6  7  8  6 10  9  6  7  5
++         6  6  0  0  0  0  0  0  0  0  0  0  0  0  0  0  0
++         0  0  0  0  0  0  0  0  0  0  0  0  0  0  0  0  0
%c M  cc GPS ccc cccc cccc cccc cccc ccccc ccccc ccccc ccccc
%c cc cc ccc ccc cccc cccc cccc cccc ccccc ccccc ccccc ccccc
%f  0.0000000  0.000000000  0.00000000000  0.000000000000000
%f  0.0000000  0.000000000  0.00000000000  0.000000000000000
%i    0    0    0    0      0      0      0      0         0
%i    0    0    0    0      0      0      0      0         0
/* INFORMATION & ANALYSIS CENTER (IAC)      ULTRA-RAPID DATA
/* S/V CLOCKS ARE ALIGNED TO GNSS TIME                      
/* G:C1WC2W R:C1PC2P E:C1XC5X C:C2IC6I J:C1CC2S             
/* PCV:IGS20_2317 OL/AL:FES2004  NONE     YN ORB:CoN CLK:CoN
*  2024 08 20 22 30  0.00000000
PG02 -21933.696551 -12191.091480   9651.390793   -374.896181
PG03 -14728.153036  -1820.423295  21851.462164    507.702358
PG04 -25430.003167  -1555.745641   7776.763953    428.072518
PG05   7628.355226  17927.333552 -18202.676212   -183.876828
PG06   -667.420609  18622.031427  18947.511025     85.370837
PG07 -16592.120400   2760.098639 -20133.662628    -48.797050
PG08 -18916.964433  -8201.633009 -17087.373064    323.163909
PG09 -25312.200668   7603.892499  -3017.073064    322.448868
PG10  10342.708447 -24098.343075  -2642.236518    -99.923808
PG11  11173.376425  22888.338596   7681.410837   -724.288697
PG12  13779.816088   6104.728211  21590.353718   -531.898923
PG13  10558.929144  13551.109481 -20543.255131    671.960579
PG14 -13173.639190  22024.848450  -6328.809677    477.032502
PG15  19740.228585   6403.379061 -17187.838690    194.896964
PG16  -3015.555253 -20871.757278 -16203.424690   -203.117706
PG17 -16195.141596  13583.685083  16606.866252    649.527059
PG18  15749.394576  -3461.433760 -21128.043169   -647.734459
PG19  -7173.792279  14832.576706  20579.887390    527.276583
PG20   2608.220955  24847.450736  -9165.425037    371.474779
PG21 -21278.397437 -16377.647233   4297.305358    103.208733
PG22  -9429.657441  24918.021565   2468.355636    -53.413260
PG23  15264.444571 -16145.259009 -14360.210129    301.867137
PG24  21683.498613  14131.354437   6416.624595   -486.481660
PG25  16656.091705  -6942.024951  19065.254153    499.382989
PG26   3448.350637 -25814.247482  -4219.574273     96.405930
PG27  -8016.162296 -13788.769860 -21584.706290    -33.252849
PG28   2431.969251 -17653.448237  19683.919725   -380.352060
PG29  26477.372005  -2842.224087    161.138463   -582.890025
PG30  -8801.600220  13445.961038 -20962.574935   -336.359122
PG31  -7616.467191 -22276.557846  11685.747281   -225.651548
PG32  13873.208305 -14927.791536  17139.550519   -604.242746
PR01 -22118.149179  11005.609158   6325.506187 999999.999999
PR02 -16915.924175  15953.011891 -10529.300227    -24.235515
PR03  -1479.214288  12969.525200 -21885.454593    106.014249
PR04  14084.102673   2840.809855 -21047.963489    250.873969
PR05  22284.950442  -8591.561663  -8915.440267    136.407586
PR07    744.282602 -12652.045375  22162.308316     89.219848
PR08 -14387.965630  -2647.167860  20960.708909     -6.376952
PR09   5216.450158 -21204.584295  13279.718566    204.525775
PR11  -8940.411491 -16465.978462 -17304.766879     14.194734
PR12 -10743.852469   4330.680600 -22696.796677     43.875440
PR14   2813.899669  25111.039670   3421.725544     26.832706
PR15   9415.097985  14973.027273  18400.614446     76.656535
PR16  10619.281928  -4171.266868  22832.812155     28.442422
PR17  10969.966500  15069.965510  17447.616918    115.090070
PR18  21406.518194  13523.112228   2935.926752    158.013693
PR19  21597.150677   6902.214892 -11702.431750   -288.331582
PR20   7556.622488  -7514.358386 -23165.703990   -117.933677
PR21 -10270.070787 -14991.051476 -17883.363341   -127.655848
PR22 -21493.195662 -13640.225695  -1641.777114     65.251017
PR24  -6929.790438   8592.534745  23010.855418    -68.650751
PR25 -10520.435140 -15702.226361 -17109.963089   -100.760325
PR26 -13206.898017  -3612.008496  21532.755970     10.670194
*  2024 08 20 22 45  0.00000000
PG02 -22459.910029 -12929.070951   7013.336245   -374.889168
PG03 -13971.944212  -4245.932545  22019.339876    507.715491
PG04 -24453.470368  -1950.565408  10375.537921    428.079161
PG05   7003.398570  19778.421417 -16425.954298   -183.878272
PG06  -2213.443580  17012.664430  20308.438542     85.348565
PG07 -18099.507989    970.925349 -19039.760105    -48.791822
PG08 -17001.623344  -8839.844832 -18678.611901    323.176723
PG09 -25541.221172   7399.165651   -174.971050    322.462970
PG10  10394.393705 -23564.281536  -5514.762410    -99.934005
PG11  10353.936592  22241.053384  10290.659204   -724.293509
PG12  12845.934729   8443.984760  21383.743586   -531.901451
PG13   8223.183540  13787.435363 -21423.309045    671.962696
PG14 -13170.985462  21087.561640  -8978.053361    477.040284
PG15  17968.972196   7271.355467 -18746.185363    194.900844
PG16  -2182.809690 -22366.237278 -14131.509891   -203.108297
PG17 -17905.889504  13710.604753  14584.927318    649.518024
PG18  17264.815990  -1654.641558 -20160.049675   -647.737151
PG19  -9503.486183  14987.818180  19465.747053    527.281456
PG20   2252.377383  25712.575614  -6523.503394    371.474372
PG21 -21371.930263 -16688.727167   1525.732549    103.207760
PG22  -9674.053296  24897.294819   -365.770091    -53.416855
PG23  14931.568669 -14399.444996 -16433.580088    301.874866
PG24  21952.568419  14767.217896   3717.377073   -486.482090
PG25  16128.045456  -4676.329924  20181.311800    499.383189
PG26   3875.072682 -26037.728032  -1429.546536     96.398884
PG27  -5657.816086 -14349.580316 -21930.774376    -33.253283
PG28   4118.671363 -16065.841886  20734.622521   -380.365320
PG29  26324.568555  -2599.230003   3020.624215   -582.888088
PG30 -10500.661518  11667.620004 -21265.408631   -336.353023
PG31  -6427.789726 -21302.972394  13983.763707   -225.650919
PG32  15686.983414 -15173.647616  15210.305514   -604.240097
PR01 -21248.249257  10558.932406   9346.053293 999999.999999
PR02 -17767.600166  16699.985500  -7568.161268    -24.235581
PR03  -3636.519757  14482.162050 -20657.595896    106.015289
PR04  11807.736812   4247.656352 -22180.811102    250.875539
PR05  21122.272243  -8030.532752 -11801.917376    136.408428
PR07   2928.438547 -14169.293554  21028.240399     89.220692
PR08 -12149.536733  -4058.097405  22119.798126     -6.377104
PR09   5316.360758 -19424.227352  15733.341363    204.527567
PR11  -9195.062263 -18449.223342 -15023.839540     14.193150
PR12 -10929.905030   1512.363359 -22967.898800     43.876015
PR14   2945.197678  25324.736710    233.465224     26.832113
PR15   9646.708078  17098.452616  16305.658926     76.656307
PR16  10814.956970  -1348.958706  23077.808383     28.443561
PR17   8992.737919  13943.861696  19401.905400    115.092692
PR18  21003.085330  13089.224532   6115.276603    158.015486
PR19  22799.645335   7345.583286  -8790.087116   -288.331929
PR20  10044.152488  -6161.242922 -22611.298849   -117.933898
PR21  -8253.061548 -13823.865436 -19771.712465   -127.658912
PR22 -21211.890464 -13316.833320  -4822.670016     65.243988
PR24  -9448.365641   7353.143681  22536.532692    -68.652397
PR25  -8606.129431 -14543.540688 -19091.094560   -100.760840
PR26 -10927.518527  -5086.258441  22493.289789     10.672389
EOF
